CCSDS_OMM_VERS = 2.0
CREATION_DATE  = 
ORIGINATOR     = 

OBJECT_NAME    = TITAN 4B R/B
OBJECT_ID      = 2000-047B
CENTER_NAME    = EARTH
REF_FRAME      = TEME
TIME_SYSTEM    = UTC
MEAN_ELEMENT_THEORY = SGP/SGP4

EPOCH          = 2025-10-26T19:12:02.382048
MEAN_MOTION    = 15.08250137
ECCENTRICITY   = .0043868
INCLINATION    = 67.9910
RA_OF_ASC_NODE = 56.6337
ARG_OF_PERICENTER = 198.2859
MEAN_ANOMALY   = 161.6715

EPHEMERIS_TYPE = 0
CLASSIFICATION_TYPE = U
NORAD_CAT_ID   = 26474
ELEMENT_SET_NO = 999
REV_AT_EPOCH   = 37271
BSTAR          = .39338E-3
MEAN_MOTION_DOT = .6114E-4
MEAN_MOTION_DDOT = 0

CCSDS_OMM_VERS = 2.0
CREATION_DATE  = 
ORIGINATOR     = 

OBJECT_NAME    = ENVISAT
OBJECT_ID      = 2002-009A
CENTER_NAME    = EARTH
REF_FRAME      = TEME
TIME_SYSTEM    = UTC
MEAN_ELEMENT_THEORY = SGP/SGP4

EPOCH          = 2025-10-26T21:24:34.365024
MEAN_MOTION    = 14.38973003
ECCENTRICITY   = .0001334
INCLINATION    = 98.3518
RA_OF_ASC_NODE = 251.8396
ARG_OF_PERICENTER = 85.8611
MEAN_ANOMALY   = 290.2933

EPHEMERIS_TYPE = 0
CLASSIFICATION_TYPE = U
NORAD_CAT_ID   = 27386
ELEMENT_SET_NO = 999
REV_AT_EPOCH   = 23993
BSTAR          = .8742E-4
MEAN_MOTION_DOT = .227E-5
MEAN_MOTION_DDOT = 0

CCSDS_OMM_VERS = 2.0
CREATION_DATE  = 
ORIGINATOR     = 

OBJECT_NAME    = IDEFIX & ARIANE 42P R/B
OBJECT_ID      = 2002-021B
CENTER_NAME    = EARTH
REF_FRAME      = TEME
TIME_SYSTEM    = UTC
MEAN_ELEMENT_THEORY = SGP/SGP4

EPOCH          = 2025-10-26T17:36:18.327744
MEAN_MOTION    = 14.30898434
ECCENTRICITY   = .0010925
INCLINATION    = 98.5709
RA_OF_ASC_NODE = 235.0535
ARG_OF_PERICENTER = 218.1672
MEAN_ANOMALY   = 141.8738

EPHEMERIS_TYPE = 0
CLASSIFICATION_TYPE = U
NORAD_CAT_ID   = 27422
ELEMENT_SET_NO = 999
REV_AT_EPOCH   = 22486
BSTAR          = .1901E-3
MEAN_MOTION_DOT = .456E-5
MEAN_MOTION_DDOT = 0

CCSDS_OMM_VERS = 2.0
CREATION_DATE  = 
ORIGINATOR     = 

OBJECT_NAME    = AQUA
OBJECT_ID      = 2002-022A
CENTER_NAME    = EARTH
REF_FRAME      = TEME
TIME_SYSTEM    = UTC
MEAN_ELEMENT_THEORY = SGP/SGP4

EPOCH          = 2025-10-26T20:40:43.898016
MEAN_MOTION    = 14.61639232
ECCENTRICITY   = .0001475
INCLINATION    = 98.3963
RA_OF_ASC_NODE = 260.0026
ARG_OF_PERICENTER = 52.9386
MEAN_ANOMALY   = 336.0575

EPHEMERIS_TYPE = 0
CLASSIFICATION_TYPE = U
NORAD_CAT_ID   = 27424
ELEMENT_SET_NO = 999
REV_AT_EPOCH   = 24918
BSTAR          = .33211E-3
MEAN_MOTION_DOT = .1603E-4
MEAN_MOTION_DDOT = 0

CCSDS_OMM_VERS = 2.0
CREATION_DATE  = 
ORIGINATOR     = 

OBJECT_NAME    = CZ-4B R/B
OBJECT_ID      = 2002-024C
CENTER_NAME    = EARTH
REF_FRAME      = TEME
TIME_SYSTEM    = UTC
MEAN_ELEMENT_THEORY = SGP/SGP4

EPOCH          = 2025-10-26T18:11:43.103328
MEAN_MOTION    = 14.14513759
ECCENTRICITY   = .0050838
INCLINATION    = 98.9070
RA_OF_ASC_NODE = 348.6767
ARG_OF_PERICENTER = 44.2384
MEAN_ANOMALY   = 66.2727

EPHEMERIS_TYPE = 0
CLASSIFICATION_TYPE = U
NORAD_CAT_ID   = 27432
ELEMENT_SET_NO = 999
REV_AT_EPOCH   = 21030
BSTAR          = .5792E-4
MEAN_MOTION_DOT = .68E-6
MEAN_MOTION_DDOT = 0

CCSDS_OMM_VERS = 2.0
CREATION_DATE  = 
ORIGINATOR     = 

OBJECT_NAME    = MIDORI II (ADEOS-II)
OBJECT_ID      = 2002-056A
CENTER_NAME    = EARTH
REF_FRAME      = TEME
TIME_SYSTEM    = UTC
MEAN_ELEMENT_THEORY = SGP/SGP4

EPOCH          = 2025-10-26T19:24:41.704128
MEAN_MOTION    = 14.29156791
ECCENTRICITY   = .0001936
INCLINATION    = 98.7554
RA_OF_ASC_NODE = 252.5387
ARG_OF_PERICENTER = 57.1571
MEAN_ANOMALY   = 302.9797

EPHEMERIS_TYPE = 0
CLASSIFICATION_TYPE = U
NORAD_CAT_ID   = 27597
ELEMENT_SET_NO = 999
REV_AT_EPOCH   = 19117
BSTAR          = .19859E-3
MEAN_MOTION_DOT = .459E-5
MEAN_MOTION_DDOT = 0

CCSDS_OMM_VERS = 2.0
CREATION_DATE  = 
ORIGINATOR     = 

OBJECT_NAME    = H-2A R/B
OBJECT_ID      = 2002-056E
CENTER_NAME    = EARTH
REF_FRAME      = TEME
TIME_SYSTEM    = UTC
MEAN_ELEMENT_THEORY = SGP/SGP4

EPOCH          = 2025-10-26T20:24:09.331200
MEAN_MOTION    = 14.33626535
ECCENTRICITY   = .0069787
INCLINATION    = 98.2989
RA_OF_ASC_NODE = 260.4929
ARG_OF_PERICENTER = 199.5573
MEAN_ANOMALY   = 222.0165

EPHEMERIS_TYPE = 0
CLASSIFICATION_TYPE = U
NORAD_CAT_ID   = 27601
ELEMENT_SET_NO = 999
REV_AT_EPOCH   = 19493
BSTAR          = .16981E-3
MEAN_MOTION_DOT = .442E-5
MEAN_MOTION_DDOT = 0

CCSDS_OMM_VERS = 2.0
CREATION_DATE  = 
ORIGINATOR     = 

OBJECT_NAME    = CZ-4B R/B
OBJECT_ID      = 2003-049C
CENTER_NAME    = EARTH
REF_FRAME      = TEME
TIME_SYSTEM    = UTC
MEAN_ELEMENT_THEORY = SGP/SGP4

EPOCH          = 2025-10-26T19:53:32.181216
MEAN_MOTION    = 14.54842028
ECCENTRICITY   = .0047136
INCLINATION    = 98.6754
RA_OF_ASC_NODE = 284.6290
ARG_OF_PERICENTER = 280.6162
MEAN_ANOMALY   = 78.9727

EPHEMERIS_TYPE = 0
CLASSIFICATION_TYPE = U
NORAD_CAT_ID   = 28059
ELEMENT_SET_NO = 999
REV_AT_EPOCH   = 16713
BSTAR          = .17188E-3
MEAN_MOTION_DOT = .697E-5
MEAN_MOTION_DDOT = 0

CCSDS_OMM_VERS = 2.0
CREATION_DATE  = 
ORIGINATOR     = 

OBJECT_NAME    = CZ-2C R/B
OBJECT_ID      = 2004-012C
CENTER_NAME    = EARTH
REF_FRAME      = TEME
TIME_SYSTEM    = UTC
MEAN_ELEMENT_THEORY = SGP/SGP4

EPOCH          = 2025-10-26T20:15:46.377792
MEAN_MOTION    = 15.51439854
ECCENTRICITY   = .0021042
INCLINATION    = 97.7497
RA_OF_ASC_NODE = 348.7275
ARG_OF_PERICENTER = 83.1488
MEAN_ANOMALY   = 277.2157

EPHEMERIS_TYPE = 0
CLASSIFICATION_TYPE = U
NORAD_CAT_ID   = 28222
ELEMENT_SET_NO = 999
REV_AT_EPOCH   = 18344
BSTAR          = .57769E-3
MEAN_MOTION_DOT = .34373E-3
MEAN_MOTION_DDOT = 0

CCSDS_OMM_VERS = 2.0
CREATION_DATE  = 
ORIGINATOR     = 

OBJECT_NAME    = SL-16 R/B
OBJECT_ID      = 2004-021B
CENTER_NAME    = EARTH
REF_FRAME      = TEME
TIME_SYSTEM    = UTC
MEAN_ELEMENT_THEORY = SGP/SGP4

EPOCH          = 2025-10-26T21:06:55.392192
MEAN_MOTION    = 14.14572318
ECCENTRICITY   = .0007365
INCLINATION    = 70.9990
RA_OF_ASC_NODE = 153.3021
ARG_OF_PERICENTER = 251.9395
MEAN_ANOMALY   = 108.0926

EPHEMERIS_TYPE = 0
CLASSIFICATION_TYPE = U
NORAD_CAT_ID   = 28353
ELEMENT_SET_NO = 999
REV_AT_EPOCH   = 10391
BSTAR          = -.11447E-3
MEAN_MOTION_DOT = -.268E-5
MEAN_MOTION_DDOT = 0

CCSDS_OMM_VERS = 2.0
CREATION_DATE  = 
ORIGINATOR     = 

OBJECT_NAME    = CZ-4B R/B
OBJECT_ID      = 2004-035C
CENTER_NAME    = EARTH
REF_FRAME      = TEME
TIME_SYSTEM    = UTC
MEAN_ELEMENT_THEORY = SGP/SGP4

EPOCH          = 2025-10-26T19:59:59.211744
MEAN_MOTION    = 15.26296712
ECCENTRICITY   = .0035977
INCLINATION    = 97.3671
RA_OF_ASC_NODE = 330.8230
ARG_OF_PERICENTER = 83.4152
MEAN_ANOMALY   = 277.1180

EPHEMERIS_TYPE = 0
CLASSIFICATION_TYPE = U
NORAD_CAT_ID   = 28415
ELEMENT_SET_NO = 999
REV_AT_EPOCH   = 15947
BSTAR          = .3688E-3
MEAN_MOTION_DOT = .9678E-4
MEAN_MOTION_DDOT = 0

CCSDS_OMM_VERS = 2.0
CREATION_DATE  = 
ORIGINATOR     = 

OBJECT_NAME    = CZ-2C R/B
OBJECT_ID      = 2004-046B
CENTER_NAME    = EARTH
REF_FRAME      = TEME
TIME_SYSTEM    = UTC
MEAN_ELEMENT_THEORY = SGP/SGP4

EPOCH          = 2025-10-26T18:24:41.094720
MEAN_MOTION    = 14.26910162
ECCENTRICITY   = .0139237
INCLINATION    = 98.1941
RA_OF_ASC_NODE = 218.0759
ARG_OF_PERICENTER = 190.4233
MEAN_ANOMALY   = 169.4056

EPHEMERIS_TYPE = 0
CLASSIFICATION_TYPE = U
NORAD_CAT_ID   = 28480
ELEMENT_SET_NO = 999
REV_AT_EPOCH   = 8940
BSTAR          = .1015E-3
MEAN_MOTION_DOT = .232E-5
MEAN_MOTION_DDOT = 0

