TITAN 4B R/B            
1 26474U 00047B   25299.80002757  .00006114  00000+0  39338-3 0  9990
2 26474  67.9910  56.6337 0043868 198.2859 161.6715 15.08250137372717
ENVISAT                 
1 27386U 02009A   25299.89206441  .00000227  00000+0  87420-4 0  9993
2 27386  98.3518 251.8396 0001334  85.8611 290.2933 14.38973003239938
IDEFIX & ARIANE 42P R/B 
1 27422U 02021B   25299.73354546  .00000456  00000+0  19010-3 0  9994
2 27422  98.5709 235.0535 0010925 218.1672 141.8738 14.30898434224862
AQUA                    
1 27424U 02022A   25299.86161919  .00001603  00000+0  33211-3 0  9995
2 27424  98.3963 260.0026 0001475  52.9386 336.0575 14.61639232249185
CZ-4B R/B               
1 27432U 02024C   25299.75813777  .00000068  00000+0  57920-4 0  9998
2 27432  98.9070 348.6767 0050838  44.2384  66.2727 14.14513759210309
MIDORI II (ADEOS-II)    
1 27597U 02056A   25299.80881602  .00000459  00000+0  19859-3 0  9995
2 27597  98.7554 252.5387 0001936  57.1571 302.9797 14.29156791191178
H-2A R/B                
1 27601U 02056E   25299.85010800  .00000442  00000+0  16981-3 0  9995
2 27601  98.2989 260.4929 0069787 199.5573 222.0165 14.33626535194933
CZ-4B R/B               
1 28059U 03049C   25299.82884469  .00000697  00000+0  17188-3 0  9995
2 28059  98.6754 284.6290 0047136 280.6162  78.9727 14.54842028167138
CZ-2C R/B               
1 28222U 04012C   25299.84428678  .00034373  00000+0  57769-3 0  9993
2 28222  97.7497 348.7275 0021042  83.1488 277.2157 15.51439854183444
SL-16 R/B               
1 28353U 04021B   25299.87980778 -.00000268  00000+0 -11447-3 0  9996
2 28353  70.9990 153.3021 0007365 251.9395 108.0926 14.14572318103913
CZ-4B R/B               
1 28415U 04035C   25299.83332421  .00009678  00000+0  36880-3 0  9992
2 28415  97.3671 330.8230 0035977  83.4152 277.1180 15.26296712159471
CZ-2C R/B               
1 28480U 04046B   25299.76714230  .00000232  00000+0  10150-3 0  9999
2 28480  98.1941 218.0759 0139237 190.4233 169.4056 14.26910162 89409
